#aV2007  1 13  0  0   .00000000      96 DD+AD WGS84 FIT  NGA
## 1409 518400.00000000   900.00000000 54113  .0000000000000
+   30     1  2  3  4  5  6  7  8  9 10 11 12 13 14 16 17 18
+         19 20 21 22 23 24 25 26 27 28 29 30 31  0  0  0  0
+          0  0  0  0  0  0  0  0  0  0  0  0  0  0  0  0  0
+          0  0  0  0  0  0  0  0  0  0  0  0  0  0  0  0  0
+          0  0  0  0  0  0  0  0  0  0  0  0  0  0  0  0  0
++         0  0  0  0  0  0  0  0  0  0  0  0  0  0  0  0  0
++         0  0  0  0  0  0  0  0  0  0  0  0  0  0  0  0  0
++         0  0  0  0  0  0  0  0  0  0  0  0  0  0  0  0  0
++         0  0  0  0  0  0  0  0  0  0  0  0  0  0  0  0  0
++         0  0  0  0  0  0  0  0  0  0  0  0  0  0  0  0  0
%c cc cc ccc ccc cccc cccc cccc cccc ccccc ccccc ccccc ccccc
%c cc cc ccc ccc cccc cccc cccc cccc ccccc ccccc ccccc ccccc
%f  0.0000000  0.000000000  0.00000000000  0.000000000000000
%f  0.0000000  0.000000000  0.00000000000  0.000000000000000
%i    0    0    0    0      0      0      0      0         0
%i    0    0    0    0      0      0      0      0         0
/*      NGA, ST. LOUIS,MO.                                  
/*   EPHEMERIS COMPUTED FROM  3 DAYS OF DATA                
/* CCCCCCCCCCCCCCCCCCCCCCCCCCCCCCCCCCCCCCCCCCCCCCCCCCCCCCCCC
/* CCCCCCCCCCCCCCCCCCCCCCCCCCCCCCCCCCCCCCCCCCCCCCCCCCCCCCCCC
*  2007  1 13 21 30   .00000000                                                 
P  1 -14919.064518  21766.300727  -2499.389737    101.251077                    
V  1     72.787013  -3950.573536 -32208.734399       .022614                    
P  2  14078.757292 -13301.180200  17830.542103     73.011313                    
V  2  23300.843317   1199.272639 -17521.340615       .034416                    
P  3 -10397.163782  24241.315047    270.287037     -2.679662                    
V  3  -3664.059293  -2170.652838  31161.311280       .060625                    
P  4  24810.319780  -6049.259069   7898.215211    354.270105                    
V  4  10068.587099   2593.465033 -29054.730668       .028281                    
P  5 -13286.121409 -22786.500705  -3989.647911      7.472051                    
V  5   5485.421416   1879.805924 -30632.571782       .142259                    
P  6 -12215.188261 -10723.148413  21184.644832    456.925335                    
V  6  12284.656761 -23588.822159  -4952.175841      -.227214                    
P  7 -13871.151700  -7931.039183  21552.554712    447.350729                    
V  7  11372.901301 -24140.760845  -1675.917496      -.107029                    
P  8  26746.028440   1160.820041   1146.450119    -93.070052                    
V  8  -1610.425189   1929.835150  31766.012927      -.012010                    
P  9  -6000.139506 -14784.347910 -21844.610391     53.007950                    
V  9  26252.922761  -2120.295711  -5701.941181       .016889                    
P 10   2911.133218 -19191.825810  17876.269158     95.843997                    
V 10  13053.502401  19011.095612  18493.451152       .006199                    
P 11   9389.464706  14679.488142 -20191.825214      3.435097                    
V 11 -25018.113021   5857.294014  -7120.144181       .014948                    
P 12 -11557.859299 -23612.312465  -3827.507781    -64.721103                    
V 12   4964.150720   2780.377582 -31244.226921       .065889                    
P 13  12111.600050   7918.747780  22183.387377    132.468111                    
V 13 -14211.952591  24465.980203   -926.800425       .039196                    
P 14 -18120.113844  10222.117121 -16386.803355      4.642092                    
V 14   9020.955256 -18944.631248 -21746.459062       .012173                    
P 16  -7574.865375  15107.603254  20537.252140    112.009912                    
V 16 -14207.065282 -21707.740832  10894.555310       .038448                    
P 17  18411.006155 -10163.611972 -16158.871763     82.578697                    
V 17  -8066.790172  19013.807060 -21271.461750      -.014563                    
P 18 -18531.925119 -13689.040815 -13359.332159   -253.881605                    
V 18  -6466.575554 -15946.644426  24746.508282      -.000520                    
P 19  -6207.867013  23620.944666 -10228.468143     56.253092                    
V 19  -9228.347448   9763.158848  27980.461775       .044313                    
P 20  13217.491672  23012.663128  -1641.990217    -21.989034                    
V 20  -3560.896252    -78.355875 -31501.595434      -.001035                    
P 21 -25149.358377  -5645.396307   7605.850390     68.309227                    
V 21   9425.498236  -2722.113811  28962.115191       .011614                    
P 22 -16974.138363   -960.249746 -20250.851536    161.778196                    
V 22 -11672.736951 -23362.801729  10789.361805       .021182                    
P 23   4826.940825  18086.318605  18686.849382    145.875581                    
V 23 -12596.080007  20404.704618 -16611.724468       .013429                    
P 24    847.254879 -15373.934779  21861.499113     68.370910                    
V 24  27261.692525    498.334901   -414.572813       .032881                    
P 25 -20275.338359  11779.894198  13040.216825    383.506805                    
V 25 -15988.750394   -141.114412 -25369.405883      -.107572                    
P 26   6348.019034 -23709.336543  -9776.899725    -92.607683                    
V 26   7726.114403  -9352.188063  29472.314330      -.177371                    
P 27  23574.753540   5984.778895  11633.996342     88.405544                    
V 27 -13466.955958   3234.043398  26851.934276       .020217                    
P 28  18166.914180   5525.113674 -18403.945514      9.660340                    
V 28  10947.357821  21274.577989  16561.997563      -.008711                    
P 29   9511.697295 -24143.576838  -4501.195395    312.107652                    
V 29   4800.586625  -4288.011202  31892.937940       .166713                    
P 30 -18008.022296 -18359.513966   6561.447261     22.453375                    
V 30  -2277.492455  -8969.551429 -29851.410212       .010998                    
P 31 -22858.983285   8383.803746  10869.106974     -4.720345                    
V 31 -13562.608347  -1900.818712 -27515.701865       .055295                    
EOF
